{
  "type": "FeatureCollection",
  "crs": {
    "type": "name",
    "properties": {
      "name": "urn:ogc:def:crs:OGC:1.3:CRS84"
    }
  },
  "properties": {
    "report_number": "BHOOMI/RJ/UDP/2026/010001-V1",
    "survey_id": "SUR-2026-001",
    "parcel_id": "BS-P-001",
    "village": "Haripura",
    "generated_at": "2026-09-01T11:37:43.453755Z",
    "total_layers": 4
  },
  "features": [
    {
      "type": "Feature",
      "geometry": {
        "type": "Polygon",
        "coordinates": [
          [
            [
              73.711,
              24.584
            ],
            [
              73.713,
              24.584
            ],
            [
              73.713,
              24.586
            ],
            [
              73.711,
              24.586
            ],
            [
              73.711,
              24.584
            ]
          ]
        ]
      },
      "properties": {
        "layer_name": "official_boundary",
        "layer_title": "Official Cadastral Record Boundary",
        "source": "REVENUE_DEPARTMENT_JAMABANDI",
        "khasra_number": "101",
        "parcel_id": "BS-P-001",
        "area_m2": 12500.0,
        "fill_color": "#1e3a8a",
        "stroke_color": "#3b82f6",
        "stroke_width": 2,
        "stroke_dasharray": "none"
      }
    },
    {
      "type": "Feature",
      "geometry": {
        "type": "Polygon",
        "coordinates": [
          [
            [
              73.711,
              24.584
            ],
            [
              73.713,
              24.584
            ],
            [
              73.713,
              24.586
            ],
            [
              73.711,
              24.586
            ],
            [
              73.711,
              24.584
            ]
          ]
        ]
      },
      "properties": {
        "layer_name": "historical_boundary",
        "layer_title": "Historical 2021 Cadastral Baseline",
        "source": "HISTORICAL_DRONE_PILOT_2021",
        "khasra_number": "101",
        "parcel_id": "BS-P-001",
        "area_m2": 12437.5,
        "fill_color": "#3b0764",
        "stroke_color": "#a855f7",
        "stroke_width": 1.5,
        "stroke_dasharray": "4 2"
      }
    },
    {
      "type": "Feature",
      "geometry": {
        "type": "Polygon",
        "coordinates": [
          [
            [
              73.712,
              24.585
            ],
            [
              73.7145,
              24.5852
            ],
            [
              73.7142,
              24.583
            ],
            [
              73.7118,
              24.5828
            ],
            [
              73.712,
              24.585
            ]
          ]
        ]
      },
      "properties": {
        "layer_name": "drone_boundary",
        "layer_title": "Drone Photogrammetry & LiDAR Detected Bund",
        "source": "AI_SEGMENTATION_LIDAR_FUSION",
        "khasra_number": "101",
        "parcel_id": "BS-P-001",
        "area_m2": 12500.0,
        "confidence": 0.947,
        "fill_color": "#78350f",
        "stroke_color": "#f59e0b",
        "stroke_width": 2,
        "stroke_dasharray": "none"
      }
    },
    {
      "type": "Feature",
      "geometry": {
        "type": "Point",
        "coordinates": [
          73.7132,
          24.584
        ]
      },
      "properties": {
        "layer_name": "parcel_centroid",
        "label": "Khasra #101",
        "land_use": "AGRICULTURAL_CROP",
        "planar_area_m2": 12500.0,
        "elevation_msl_m": 582.4,
        "point_type": "CENTROID"
      }
    }
  ]
}